#dP2021  4  7  6  0  0.00000000      96 __u+U ITR00 EXT  IAC
## 2152 280800.00000000   900.00000000 59311 0.2500000000000
+  117   C06C07C08C09C10C11C12C13C14C16C19C20C21C22C23C24C25
+        C26C27C28C29C30C32C33C34C35C36C37C38C39C40C41C42C43
+        C44C45C46E01E02E03E04E05E07E08E09E11E12E13E14E15E18
+        E19E21E24E25E26E27E30E31E33E36G01G02G03G04G05G06G07
+        G08G09G10G11G12G13G14G15G16G17G18G19G20G21G22G23G24
+        G25G26G27G28G29G30G31G32J01J02J03R01R02R03R04R05R07
+        R08R09R11R12R13R14R15R16R17R18R19R20R21R22R24  0  0
++         9 10  9  9  8 13  8 10  9  9  9  8  9  8  8 10  9
++         9  8  8 10 10 10  9  8 10  8  9 11 11 10  8 10 10
++        10 11 10  8  8  9  8  8  8  8  8  9  9  8  8  9 10
++         8  9  8  8  8  9  9  9  8  8  8  9  7  8  8  8  8
++         8  8  8  9  8  9  8  9  8  8  7  8  8  8  7  7  8
++         8  8  8  8  8  8  8  8 10 10 10  9  8  9  7  8  9
++         9 10  9  8  9  8  8  8  9  8 10  9  9  8  9  0  0
%c M  cc GPS ccc cccc cccc cccc cccc ccccc ccccc ccccc ccccc
%c cc cc ccc ccc cccc cccc cccc cccc ccccc ccccc ccccc ccccc
%f  0.0000000  0.000000000  0.00000000000  0.000000000000000
%f  0.0000000  0.000000000  0.00000000000  0.000000000000000
%i    0    0    0    0      0      0      0      0         0
%i    0    0    0    0      0      0      0      0         0
/* IAC                                ULTRA-RAPID PREDICTION
/* S/V CLOCKS ARE ALIGNED TO GNSS TIME                      
/* G:C1WC2W R:C1PC2P E:C1XC5X C:C2IC6I J:C1CC2S             
/* PCV:IGS14_2148 OL/AL:FES2004  NONE     YN ORB:CoN CLK:CoN
*  2021 04 07 11  0  0.00000000
PC06 -21058.245468  21372.485315 -29347.045768    253.705480
PC07 -19178.242709  37088.701162  -3011.717309    -95.806749
PC08  -5216.057551  27003.268671  32193.869616   -893.777798
PC09  -4013.821288  24160.901314 -34049.421542    613.125850
PC10  -8332.511681  39841.762324  10285.003682    -60.078199
PC11 -21656.093885 -11454.169373 -13271.639988   -823.485677
PC12  -3471.210094 -15526.874353 -22891.780120    924.957412
PC13   5738.774499  35126.946823  22898.338222    211.794999
PC14 -11004.006970 -11864.285147  22770.420355    406.230522
PC16 -16422.614893  22436.755371 -31636.610771   -771.480101
PC19  17142.282868   2051.262544 -21896.314817    789.891914
PC20   4390.438641  18332.230977 -20544.905403   -948.159712
PC21  11664.745893 -24434.194644   6830.741141   -928.040760
PC22  20377.513587 -15884.498286 -10573.763946   -951.943798
PC23 -14558.879316   7204.563173 -22691.244114   -884.842672
PC24 -11328.618143 -25487.942027    -71.037820   -806.105077
PC25 -18857.192777 -11975.680660 -16719.341413   -936.301212
PC26   1015.305722 -23322.815626  15253.679280    924.432312
PC27  -7732.181772  14671.517914  22427.473560    511.434826
PC28 -24360.620858   5728.625226  12349.628812    -89.164192
PC29  26896.550250   5534.934749   4939.823622    375.532167
PC30  13413.833589  14647.571418  19586.460466    458.403081
PC32 -11502.961821  24494.908580  -6771.344111   -933.094100
PC33 -17133.293816  -2106.275429  21934.472110   -942.339417
PC34 -14145.556332 -14531.363393 -19192.280679   -701.394783
PC35  24308.163353  -6421.415713 -12072.962022   -338.399571
PC36  18557.590521  12762.803777  16496.951074   -733.627502
PC37  -2192.785197  22861.663957 -15852.144924   -891.006854
PC38  -3537.910512  30452.951260  29026.346080    140.730339
PC39 -12617.744669  23844.476671 -32429.048645     30.087629
PC40 -15063.217976  38108.829973   9630.876591    148.728348
PC41 -20410.007401  15649.724418  10888.935778   -940.415561
PC42  -3850.315146 -18879.720256  20240.483186   -928.069551
PC43 -26727.445473  -6011.022589  -5402.580894   -674.592960
PC44   7407.879784 -15023.848733 -22321.986535    125.379317
PC45  14399.013519  -7259.247408  22774.070941    407.381951
PC46  11941.676685  25225.704137    959.769404    327.333959
PE01 -14397.793945  16307.194346 -20081.140875  -1081.886554
PE02  14355.201253 -16402.318237  20011.659282    210.469511
PE03  25387.065491 -15027.793538   2504.859843   -417.457958
PE04 -10777.127781  20334.146459 -18606.547284   -745.103178
PE05  25310.306857   -805.764474 -15321.788288   -290.778785
PE07 -10474.940481 -13746.835127  24040.206859   -522.570060
PE08  10408.338225 -20287.241876  18887.500738   6021.326523
PE09  10662.183279  13447.160771 -24110.969759   5708.955930
PE11  19068.889678  20103.561341  10374.229097   6121.300515
PE12    -74.521556  18087.247715  23427.520864   5271.732603
PE13 -18861.926297 -20113.860042 -10774.536312    414.675891
PE14  25205.249363   2021.039020   8846.516165  -1388.603139
PE15    -96.596439 -18051.338287 -23453.236253    820.696978
PE18 -19812.052536 -12224.825415 -19222.314785  -1518.978827
PE19 -26228.913720  13719.430601   -329.898378    246.223613
PE21 -16140.147588  -5070.863946 -24293.810511   -657.968340
PE24   8080.337005  24845.662292  13921.721647   -834.226198
PE25  16106.553726   5308.008446  24261.802446   -530.390875
PE26 -26457.422448  -9859.470887   8901.018848   1952.497274
PE27  -8612.290384 -24287.867134 -14554.496522     -6.055789
PE30   4623.304974 -28877.803976   4494.652850   3044.487489
PE31  -3926.415250  29111.016544  -3672.894974   -479.922980
PE33 -18712.260726   5358.822373  22311.259947   -467.299727
PE36  26482.725495  10329.359084  -8223.129462   -190.432083
PG01 -21470.958802 -13137.245146   8759.324904    722.444142
PG02  10317.951947  20874.257120  13390.468967   -593.448335
PG03 -14122.696245  -5261.010429  21794.159230   -130.018267
PG04 -23529.795470  -2902.859216  12039.507848   -190.545256
PG05   6279.772725  21022.736492 -14991.312132    -38.394618
PG06  -1590.293109  17243.136403  20184.243260      5.527773
PG07 -19097.995376   -594.429471 -18304.869627    114.606644
PG08 -17867.541449  -7734.651839 -18205.883569    -16.611941
PG09 -25767.765442   6114.847090   2147.324334   -337.124991
PG10  11677.291141 -22036.318234  -8624.152734    -97.033826
PG11 -24818.264058  -8785.597836  -1793.088612     22.850173
PG12  12165.323696   9481.294813  21390.269730    -24.552166
PG13   8459.079711  13606.708994 -21337.916485    117.018570
PG14 -13275.167607  21003.570185  -9370.665721     97.594291
PG15  19035.976829   6608.041966 -17830.857267   -157.831932
PG16  -1402.955383 -22910.076294 -13193.442613   -305.940377
PG17 -18237.185104  13599.104657  14132.777787    422.477117
PG18  16557.392624  -3308.305880 -20524.160542    351.575520
PG19 -10770.698198  14715.756304  18986.977624    -16.126518
PG20  15867.730961  -2808.136130 -21076.909453    523.423990
PG21 -21349.916240 -16175.543881   1971.722483    109.168302
PG22 -11745.503246 -15000.217289  18772.567549   -643.418907
PG23  15309.988519 -13127.577079 -17279.789626    114.722069
PG24  21627.433718  15439.791753   3034.202737      0.072733
PG25  15943.869869  -5647.620573  20144.202864    113.932818
PG26   3210.521708 -26048.593547  -3050.212874     68.853669
PG27  -5773.192772 -13879.229190 -22081.867426   -108.338302
PG28 -12593.453504  22475.948642  -6293.362989    590.447762
PG29  26178.959851  -4383.993991   1411.006536   -325.736216
PG30 -10044.632015  12134.672161 -21321.545991   -409.471950
PG31   -271.471003 -18885.054294  18402.088389   -110.172446
PG32  15898.636380 -15357.072294  14706.074694     22.040512
PJ01 -35033.555154  23504.759309   4952.220049   -362.916716
PJ02 -20192.409619  28831.217325 -18755.091890      4.949001
PJ03 -30065.713536  23362.230721  23165.682265     -2.956504
PR01   4879.309116  10576.029975 -22685.965209     77.531797
PR02  18334.000497  -6679.412818 -16349.161718    473.855045
PR03  18513.659159 -17505.784752   -246.839623     33.781259
PR04   8377.955193 -18202.612672  15812.782655     81.319585
PR05  -6448.893771  -8790.496087  23075.431303     69.543477
PR07 -18398.329733  17699.072756   -270.413821    -42.558904
PR08  -8344.441679  18252.432017 -15697.223510    -58.403000
PR09 -12258.380193  -4252.692787 -21960.300863    -13.259357
PR11   2921.406870  24332.598715  -7051.185077      1.362606
PR12  10487.187153  20519.490266  10984.539753    218.885807
PR13  12076.525927   4878.311138  21911.666768    -53.082398
PR14   6450.360910 -14293.358022  20128.783862     62.877320
PR15  -2737.068656 -24478.079342   6643.450477    104.506679
PR16 -11283.230515 -19513.834325 -11838.271534    -13.494899
PR17  15878.513887  -4493.336306 -19454.697156    414.290595
PR18  -1221.313753 -11115.247985 -22918.573592     72.389181
PR19 -16645.991053 -12419.520339 -14813.131119   -138.830863
PR20 -24409.698500  -6002.885372   4495.181384    -46.835620
PR21 -14823.260841   4998.392163  20141.323291   -200.008876
PR22   2194.330588  11293.450902  22738.350431   -106.585616
PR24  24439.028974   5198.941593  -5134.338018     37.921411
EOF
